IRIDIUM 39              
1 25042U 97069D   25360.61423670  .00000822  00000+0  20862-3 0  9991
2 25042  86.3929 128.6816 0018515  29.8874 330.3384 14.49525372476836
IRIDIUM 38              
1 25043U 97069E   25360.47430703  .00000527  00000+0  16670-3 0  9995
2 25043  86.3979 152.3326 0002681 138.2259 221.9144 14.38326878473598
IRIDIUM 42              
1 25077U 97077A   25360.50851223  .00000484  00000+0  15822-3 0  9999
2 25077  86.3983 158.7228 0001876 114.8280 245.3112 14.36543813468801
IRIDIUM 44              
1 25078U 97077B   25360.63813240  .00000478  00000+0  14418-3 0  9994
2 25078  86.3978 140.0906 0003873 103.3717 256.7914 14.40443455471402
IRIDIUM 45              
1 25104U 97082A   25360.59104543  .00038874  00000+0  10808-2 0  9993
2 25104  86.3550 313.8481 0094735 328.3773  31.1803 15.32195764481394
IRIDIUM 24              
1 25105U 97082B   25360.49996621  .00000493  00000+0  14301-3 0  9998
2 25105  86.3907 358.7123 0012212 152.5342 207.6507 14.42340160470932
IRIDIUM 51              
1 25262U 98018A   25360.40689464  .00103153  00000+0  99177-3 0  9998
2 25262  86.3729 319.2121 0046146 214.2676 145.5613 15.64847502476781
IRIDIUM 57              
1 25273U 98019B   25360.42926185  .00000371  00000+0  12094-3 0  9998
2 25273  86.3947  64.6478 0002240  97.5780 262.5671 14.36061222452374
